FLOCK 4G-21             
1 62651U 25009AU  26068.19487675  .00013648  00000+0  49619-3 0  9998
2 62651  97.4032 151.1274 0000465 329.5782  30.5431 15.28381075 63677
STARLINK-36082          
1 66872U 25281AA  26068.15908204  .00041504  00000+0  15072-2 0  9998
2 66872  43.0015 346.5308 0001815 241.8450 118.2219 15.27624289 16098
